0 DELTA 1 DEB
1 13572U 78026FK  13282.74814604  .00001288  00000-0  57242-3 0  2716
2 13572 099.0432 181.5018 0145370 260.0336 176.1852 14.19313933652113
0 DELTA 1 DEB
1 13572U 78026FK  13285.99996604  .00001607  00000-0  70899-3 0  2737
2 13572 099.0434 184.8220 0145202 250.6812 231.5898 14.19325039652570
0 DELTA 1 DEB
1 13572U 78026FK  13287.20480166  .00002188  00000-0  95784-3 0  2740
2 13572 099.0434 186.0512 0145203 247.2717 267.7634 14.19326475652748
0 DELTA 1 DEB
1 13572U 78026FK  13288.45332219  .00002624  00000-0  11448-2 0  2753
2 13572 099.0433 187.3262 0145130 243.6847 167.2173 14.19335730652922
0 DELTA 1 DEB
1 13572U 78026FK  13289.72435569  .00002328  00000-0  10177-2 0  2766
2 13572 099.0432 188.6241 0145069 240.0249 181.7478 14.19341429653102
0 DELTA 1 DEB
1 13572U 78026FK  13290.93679425  .00002424  00000-0  10590-2 0  2779
2 13572 099.0430 189.8624 0145032 236.5271 256.9141 14.19345212653277
0 DELTA 1 DEB
1 13572U 78026FK  13292.20962559  .00002487  00000-0  10857-2 0  2780
2 13572 099.0428 191.1623 0144982 232.8567 280.6857 14.19350059653452
0 DELTA 1 DEB
1 13572U 78026FK  13293.45905800  .00002575  00000-0  11233-2 0  2792
2 13572 099.0425 192.4382 0144954 229.2545 184.9184 14.19356248653635
0 DELTA 1 DEB
1 13572U 78026FK  13294.72194856  .00002461  00000-0  10744-2 0  2806
2 13572 099.0423 193.7279 0144915 225.6184 157.9367 14.19362695653814
0 DELTA 1 DEB
1 13572U 78026FK  13296.16041596  .00002788  00000-0  12146-2 0  2819
2 13572 099.0422 195.1968 0144917 221.4753 308.1407 14.19366697654016
